{"type": "FeatureCollection", "features": [ {"type": "Feature", "properties": {"norad_id": 36994, "name": "FENGYUN 1C DEB", "group": "fengyun-1c-debris", "lat": -3.328038854575133, "lon": 140.77770561426874, "alt_km": 904.3041504332996, "timestamp": "2025-12-25T22:42:17.300277+00:00", "meta": {"OBJECT_NAME": "FENGYUN 1C DEB", "OBJECT_ID": "1999-025ECA", "EPOCH": "2025-12-24T04:22:34.357440", "MEAN_MOTION": 13.90790861, "ECCENTRICITY": 0.01144801, "INCLINATION": 98.6443, "RA_OF_ASC_NODE": 319.643, "ARG_OF_PERICENTER": 261.4355, "MEAN_ANOMALY": 97.382, "EPHEMERIS_TYPE": 0, "CLASSIFICATION_TYPE": "U", "NORAD_CAT_ID": 36994, "ELEMENT_SET_NO": 999, "REV_AT_EPOCH": 81066, "BSTAR": 0.00017123213, "MEAN_MOTION_DOT": 1.85e-06, "MEAN_MOTION_DDOT": 0}, "tle": {"line1": "1 36994U 99025ECA 25358.18234210  .00000185  00000+0  17123-3 0  9990", "line2": "2 36994  98.6443 319.6430 0114480 261.4355  97.3820 13.90790861810661"}}, "geometry": {"type": "Point", "coordinates": [140.77770561426874, -3.328038854575133]}}, {"type": "Feature", "properties": {"norad_id": 36995, "name": "FENGYUN 1C DEB", "group": "fengyun-1c-debris", "lat": 36.961084804216775, "lon": -128.74482758371417, "alt_km": 890.0066181167285, "timestamp": "2025-12-25T22:42:17.300287+00:00", "meta": {"OBJECT_NAME": "FENGYUN 1C DEB", "OBJECT_ID": "1999-025ECB", "EPOCH": "2025-12-21T10:50:27.809664", "MEAN_MOTION": 14.04870407, "ECCENTRICITY": 0.00383848, "INCLINATION": 98.3428, "RA_OF_ASC_NODE": 233.4615, "ARG_OF_PERICENTER": 285.703, "MEAN_ANOMALY": 73.9907, "EPHEMERIS_TYPE": 0, "CLASSIFICATION_TYPE": "U", "NORAD_CAT_ID": 36995, "ELEMENT_SET_NO": 999, "REV_AT_EPOCH": 63679, "BSTAR": 0.0002276039, "MEAN_MOTION_DOT": 3.29e-06, "MEAN_MOTION_DDOT": 0}, "tle": {"line1": "1 36995U 99025ECB 25355.45171076  .00000329  00000+0  22760-3 0  9991", "line2": "2 36995  98.3428 233.4615 0038384 285.7030  73.9907 14.04870407636794"}}, "geometry": {"type": "Point", "coordinates": [-128.74482758371417, 36.961084804216775]}}, {"type": "Feature", "properties": {"norad_id": 36996, "name": "FENGYUN 1C DEB", "group": "fengyun-1c-debris", "lat": 73.24946529858815, "lon": -0.1714168370724731, "alt_km": 1010.3808293995671, "timestamp": "2025-12-25T22:42:17.300297+00:00", "meta": {"OBJECT_NAME": "FENGYUN 1C DEB", "OBJECT_ID": "1999-025ECC", "EPOCH": "2025-12-19T06:51:36.156096", "MEAN_MOTION": 14.11557729, "ECCENTRICITY": 0.0254059, "INCLINATION": 98.2257, "RA_OF_ASC_NODE": 144.9888, "ARG_OF_PERICENTER": 330.3469, "MEAN_ANOMALY": 147.4127, "EPHEMERIS_TYPE": 0, "CLASSIFICATION_TYPE": "U", "NORAD_CAT_ID": 36996, "ELEMENT_SET_NO": 999, "REV_AT_EPOCH": 59784, "BSTAR": 0.00056112, "MEAN_MOTION_DOT": 1.337e-05, "MEAN_MOTION_DDOT": 0}, "tle": {"line1": "1 36996U 99025ECC 25353.28583514  .00001337  00000+0  56112-3 0  9993", "line2": "2 36996  98.2257 144.9888 0254059 330.3469 147.4127 14.11557729597844"}}, "geometry": {"type": "Point", "coordinates": [-0.1714168370724731, 73.24946529858815]}}, {"type": "Feature", "properties": {"norad_id": 37003, "name": "FENGYUN 1C DEB", "group": "fengyun-1c-debris", "lat": 31.175755872768608, "lon": -151.54004626320744, "alt_km": 839.6066314832797, "timestamp": "2025-12-25T22:42:17.300307+00:00", "meta": {"OBJECT_NAME": "FENGYUN 1C DEB", "OBJECT_ID": "1999-025ECK", "EPOCH": "2025-12-18T07:48:02.434752", "MEAN_MOTION": 13.96231437, "ECCENTRICITY": 0.00968579, "INCLINATION": 98.8458, "RA_OF_ASC_NODE": 15.7304, "ARG_OF_PERICENTER": 147.1253, "MEAN_ANOMALY": 235.2095, "EPHEMERIS_TYPE": 0, "CLASSIFICATION_TYPE": "U", "NORAD_CAT_ID": 37003, "ELEMENT_SET_NO": 999, "REV_AT_EPOCH": 60735, "BSTAR": 0.00036300048, "MEAN_MOTION_DOT": 4.78e-06, "MEAN_MOTION_DDOT": 0}, "tle": {"line1": "1 37003U 99025ECK 25352.32502818  .00000478  00000+0  36300-3 0  9997", "line2": "2 37003  98.8458  15.7304 0096857 147.1253 235.2095 13.96231437607351"}}, "geometry": {"type": "Point", "coordinates": [-151.54004626320744, 31.175755872768608]}}, {"type": "Feature", "properties": {"norad_id": 37006, "name": "FENGYUN 1C DEB", "group": "fengyun-1c-debris", "lat": 80.69479116641492, "lon": 158.9256512303297, "alt_km": 804.7651175147785, "timestamp": "2025-12-25T22:42:17.300317+00:00", "meta": {"OBJECT_NAME": "FENGYUN 1C DEB", "OBJECT_ID": "1999-025ECN", "EPOCH": "2025-12-23T10:36:30.026880", "MEAN_MOTION": 14.48972917, "ECCENTRICITY": 0.02551791, "INCLINATION": 99.298, "RA_OF_ASC_NODE": 247.1031, "ARG_OF_PERICENTER": 216.2092, "MEAN_ANOMALY": 142.159, "EPHEMERIS_TYPE": 0, "CLASSIFICATION_TYPE": "U", "NORAD_CAT_ID": 37006, "ELEMENT_SET_NO": 999, "REV_AT_EPOCH": 65269, "BSTAR": 0.00065687937, "MEAN_MOTION_DOT": 3.705e-05, "MEAN_MOTION_DDOT": 0}, "tle": {"line1": "1 37006U 99025ECN 25357.44201420  .00003705  00000+0  65688-3 0  9990", "line2": "2 37006  99.2980 247.1031 0255179 216.2092 142.1590 14.48972917652696"}}, "geometry": {"type": "Point", "coordinates": [158.9256512303297, 80.69479116641492]}}, {"type": "Feature", "properties": {"norad_id": 37008, "name": "FENGYUN 1C DEB", "group": "fengyun-1c-debris", "lat": -11.164119604246338, "lon": 120.7742459840362, "alt_km": 900.6056817648205, "timestamp": "2025-12-25T22:42:17.300327+00:00", "meta": {"OBJECT_NAME": "FENGYUN 1C DEB", "OBJECT_ID": "1999-025ECQ", "EPOCH": "2025-12-24T14:21:14.366880", "MEAN_MOTION": 14.07974536, "ECCENTRICITY": 0.00627126, "INCLINATION": 99.1354, "RA_OF_ASC_NODE": 117.5909, "ARG_OF_PERICENTER": 220.82, "MEAN_ANOMALY": 138.8262, "EPHEMERIS_TYPE": 0, "CLASSIFICATION_TYPE": "U", "NORAD_CAT_ID": 37008, "ELEMENT_SET_NO": 999, "REV_AT_EPOCH": 60481, "BSTAR": 0.0010849664, "MEAN_MOTION_DOT": 1.832e-05, "MEAN_MOTION_DDOT": 0}, "tle": {"line1": "1 37008U 99025ECQ 25358.59808295  .00001832  00000+0  10850-2 0  9991", "line2": "2 37008  99.1354 117.5909 0062712 220.8200 138.8262 14.07974536604810"}}, "geometry": {"type": "Point", "coordinates": [120.7742459840362, -11.164119604246338]}}, {"type": "Feature", "properties": {"norad_id": 37017, "name": "FENGYUN 1C DEB", "group": "fengyun-1c-debris", "lat": 72.43387399027986, "lon": -84.42297445385218, "alt_km": 807.9088750822921, "timestamp": "2025-12-25T22:42:17.300337+00:00", "meta": {"OBJECT_NAME": "FENGYUN 1C DEB", "OBJECT_ID": "1999-025ECZ", "EPOCH": "2025-12-25T14:01:57.704160", "MEAN_MOTION": 14.40919347, "ECCENTRICITY": 0.0281, "INCLINATION": 98.792, "RA_OF_ASC_NODE": 304.4725, "ARG_OF_PERICENTER": 327.0532, "MEAN_ANOMALY": 31.341, "EPHEMERIS_TYPE": 0, "CLASSIFICATION_TYPE": "U", "NORAD_CAT_ID": 37017, "ELEMENT_SET_NO": 999, "REV_AT_EPOCH": 61346, "BSTAR": 0.0020644, "MEAN_MOTION_DOT": 0.00010567, "MEAN_MOTION_DDOT": 0}, "tle": {"line1": "1 37017U 99025ECZ 25359.58469565  .00010567  00000+0  20644-2 0  9991", "line2": "2 37017  98.7920 304.4725 0281000 327.0532  31.3410 14.40919347613467"}}, "geometry": {"type": "Point", "coordinates": [-84.42297445385218, 72.43387399027986]}}, {"type": "Feature", "properties": {"norad_id": 37021, "name": "FENGYUN 1C DEB", "group": "fengyun-1c-debris", "lat": 50.38700136676738, "lon": -153.5457186067728, "alt_km": 763.1749262037229, "timestamp": "2025-12-25T22:42:17.300348+00:00", "meta": {"OBJECT_NAME": "FENGYUN 1C DEB", "OBJECT_ID": "1999-025EDD", "EPOCH": "2025-12-22T06:58:32.171232", "MEAN_MOTION": 14.32310959, "ECCENTRICITY": 0.01760624, "INCLINATION": 98.3842, "RA_OF_ASC_NODE": 12.6537, "ARG_OF_PERICENTER": 223.2786, "MEAN_ANOMALY": 149.9387, "EPHEMERIS_TYPE": 0, "CLASSIFICATION_TYPE": "U", "NORAD_CAT_ID": 37021, "ELEMENT_SET_NO": 999, "REV_AT_EPOCH": 70191, "BSTAR": 0.00065126431, "MEAN_MOTION_DOT": 2.04e-05, "MEAN_MOTION_DDOT": 0}, "tle": {"line1": "1 37021U 99025EDD 25356.29065013  .00002040  00000+0  65126-3 0  9993", "line2": "2 37021  98.3842  12.6537 0176062 223.2786 149.9387 14.32310959701911"}}, "geometry": {"type": "Point", "coordinates": [-153.5457186067728, 50.38700136676738]}}, {"type": "Feature", "properties": {"norad_id": 37028, "name": "FENGYUN 1C DEB", "group": "fengyun-1c-debris", "lat": 47.29835887417043, "lon": -101.84965334434655, "alt_km": 787.5100489226734, "timestamp": "2025-12-25T22:42:17.300358+00:00", "meta": {"OBJECT_NAME": "FENGYUN 1C DEB", "OBJECT_ID": "1999-025EDL", "EPOCH": "2025-12-25T00:32:25.103328", "MEAN_MOTION": 14.22825212, "ECCENTRICITY": 0.00343044, "INCLINATION": 99.2462, "RA_OF_ASC_NODE": 267.3486, "ARG_OF_PERICENTER": 64.0636, "MEAN_ANOMALY": 296.4069, "EPHEMERIS_TYPE": 0, "CLASSIFICATION_TYPE": "U", "NORAD_CAT_ID": 37028, "ELEMENT_SET_NO": 999, "REV_AT_EPOCH": 60650, "BSTAR": 0.0018913488, "MEAN_MOTION_DOT": 4.225e-05, "MEAN_MOTION_DDOT": 0}, "tle": {"line1": "1 37028U 99025EDL 25359.02251277  .00004225  00000+0  18913-2 0  9991", "line2": "2 37028  99.2462 267.3486 0034304  64.0636 296.4069 14.22825212606501"}}, "geometry": {"type": "Point", "coordinates": [-101.84965334434655, 47.29835887417043]}}, {"type": "Feature", "properties": {"norad_id": 37036, "name": "FENGYUN 1C DEB", "group": "fengyun-1c-debris", "lat": -24.468077769255697, "lon": -3.868868611063194, "alt_km": 820.5439644905837, "timestamp": "2025-12-25T22:42:17.300368+00:00", "meta": {"OBJECT_NAME": "FENGYUN 1C DEB", "OBJECT_ID": "1999-025EDU", "EPOCH": "2025-12-23T05:48:29.509344", "MEAN_MOTION": 14.03580297, "ECCENTRICITY": 0.01241015, "INCLINATION": 98.7147, "RA_OF_ASC_NODE": 349.5369, "ARG_OF_PERICENTER": 25.9837, "MEAN_ANOMALY": 334.749, "EPHEMERIS_TYPE": 0, "CLASSIFICATION_TYPE": "U", "NORAD_CAT_ID": 37036, "ELEMENT_SET_NO": 999, "REV_AT_EPOCH": 63895, "BSTAR": 0.00024663063, "MEAN_MOTION_DOT": 3.73e-06, "MEAN_MOTION_DDOT": 0}, "tle": {"line1": "1 37036U 99025EDU 25357.24200821  .00000373  00000+0  24663-3 0  9991", "line2": "2 37036  98.7147 349.5369 0124101  25.9837 334.7490 14.03580297638959"}}, "geometry": {"type": "Point", "coordinates": [-3.868868611063194, -24.468077769255697]}}]}